CASSIOPE                
1 39265U 13055A   17345.92771067  .00002924  00000-0  82967-4 0  9991
2 39265  80.9685 190.9582 0682379  97.9983 269.9145 14.24409588216805
